[{"OBJECT_NAME":"STARLINK-5150","OBJECT_ID":"2023-090AV","EPOCH":"2026-03-09T22:00:01.999584","MEAN_MOTION":15.1013784,"ECCENTRICITY":0.00012104,"INCLINATION":43.0005,"RA_OF_ASC_NODE":260.3876,"ARG_OF_PERICENTER":307.3924,"MEAN_ANOMALY":195.4184,"EPHEMERIS_TYPE":0,"CLASSIFICATION_TYPE":"U","NORAD_CAT_ID":57144,"ELEMENT_SET_NO":999,"REV_AT_EPOCH":578,"BSTAR":0.0046296775,"MEAN_MOTION_DOT":0.00077443,"MEAN_MOTION_DDOT":0},{"OBJECT_NAME":"COSMOS 2058","OBJECT_ID":"1990-010A","EPOCH":"2026-03-09T23:30:01.891584","MEAN_MOTION":15.11324867,"ECCENTRICITY":0.00093159,"INCLINATION":82.4669,"RA_OF_ASC_NODE":47.1427,"ARG_OF_PERICENTER":343.3032,"MEAN_ANOMALY":16.789,"EPHEMERIS_TYPE":0,"CLASSIFICATION_TYPE":"U","NORAD_CAT_ID":20465,"ELEMENT_SET_NO":999,"REV_AT_EPOCH":94228,"BSTAR":0.00029943939,"MEAN_MOTION_DOT":5.077e-5,"MEAN_MOTION_DDOT":0}]
